<?xml version="1.0" encoding="UTF-8"?>
<ndm xmlns:xsi="http://www.w3.org/2001/XMLSchema-instance" xsi:noNamespaceSchemaLocation="https://sanaregistry.org/r/ndmxml_unqualified/ndmxml-2.0.0-master-2.0.xsd">
<omm id="CCSDS_OMM_VERS" version="2.0">
<header><CREATION_DATE/><ORIGINATOR/></header><body><segment><metadata><OBJECT_NAME>ONEWEB-0395</OBJECT_NAME><OBJECT_ID>2021-132G</OBJECT_ID><CENTER_NAME>EARTH</CENTER_NAME><REF_FRAME>TEME</REF_FRAME><TIME_SYSTEM>UTC</TIME_SYSTEM><MEAN_ELEMENT_THEORY>SGP4</MEAN_ELEMENT_THEORY></metadata><data><meanElements><EPOCH>2026-01-03T14:16:40.555776</EPOCH><MEAN_MOTION>13.11415211</MEAN_MOTION><ECCENTRICITY>.00016513</ECCENTRICITY><INCLINATION>87.8828</INCLINATION><RA_OF_ASC_NODE>53.8465</RA_OF_ASC_NODE><ARG_OF_PERICENTER>107.0853</ARG_OF_PERICENTER><MEAN_ANOMALY>253.0456</MEAN_ANOMALY></meanElements><tleParameters><EPHEMERIS_TYPE>0</EPHEMERIS_TYPE><CLASSIFICATION_TYPE>U</CLASSIFICATION_TYPE><NORAD_CAT_ID>50475</NORAD_CAT_ID><ELEMENT_SET_NO>999</ELEMENT_SET_NO><REV_AT_EPOCH>19414</REV_AT_EPOCH><BSTAR>.9611427E-3</BSTAR><MEAN_MOTION_DOT>.353E-5</MEAN_MOTION_DOT><MEAN_MOTION_DDOT>0</MEAN_MOTION_DDOT></tleParameters></data></segment></body></omm>
<omm id="CCSDS_OMM_VERS" version="2.0">
<header><CREATION_DATE/><ORIGINATOR/></header><body><segment><metadata><OBJECT_NAME>ONEWEB-0396</OBJECT_NAME><OBJECT_ID>2021-132H</OBJECT_ID><CENTER_NAME>EARTH</CENTER_NAME><REF_FRAME>TEME</REF_FRAME><TIME_SYSTEM>UTC</TIME_SYSTEM><MEAN_ELEMENT_THEORY>SGP4</MEAN_ELEMENT_THEORY></metadata><data><meanElements><EPOCH>2026-01-03T12:21:46.094976</EPOCH><MEAN_MOTION>13.18686260</MEAN_MOTION><ECCENTRICITY>.00018242</ECCENTRICITY><INCLINATION>87.9174</INCLINATION><RA_OF_ASC_NODE>8.1492</RA_OF_ASC_NODE><ARG_OF_PERICENTER>91.0632</ARG_OF_PERICENTER><MEAN_ANOMALY>269.0709</MEAN_ANOMALY></meanElements><tleParameters><EPHEMERIS_TYPE>0</EPHEMERIS_TYPE><CLASSIFICATION_TYPE>U</CLASSIFICATION_TYPE><NORAD_CAT_ID>50476</NORAD_CAT_ID><ELEMENT_SET_NO>999</ELEMENT_SET_NO><REV_AT_EPOCH>19993</REV_AT_EPOCH><BSTAR>-.20853883E-3</BSTAR><MEAN_MOTION_DOT>-.69E-6</MEAN_MOTION_DOT><MEAN_MOTION_DDOT>0</MEAN_MOTION_DDOT></tleParameters></data></segment></body></omm>
<omm id="CCSDS_OMM_VERS" version="2.0">
<header><CREATION_DATE/><ORIGINATOR/></header><body><segment><metadata><OBJECT_NAME>ONEWEB-0397</OBJECT_NAME><OBJECT_ID>2021-132J</OBJECT_ID><CENTER_NAME>EARTH</CENTER_NAME><REF_FRAME>TEME</REF_FRAME><TIME_SYSTEM>UTC</TIME_SYSTEM><MEAN_ELEMENT_THEORY>SGP4</MEAN_ELEMENT_THEORY></metadata><data><meanElements><EPOCH>2026-01-03T12:43:07.988448</EPOCH><MEAN_MOTION>13.18684947</MEAN_MOTION><ECCENTRICITY>.00019777</ECCENTRICITY><INCLINATION>87.9174</INCLINATION><RA_OF_ASC_NODE>8.1463</RA_OF_ASC_NODE><ARG_OF_PERICENTER>88.2736</ARG_OF_PERICENTER><MEAN_ANOMALY>271.8622</MEAN_ANOMALY></meanElements><tleParameters><EPHEMERIS_TYPE>0</EPHEMERIS_TYPE><CLASSIFICATION_TYPE>U</CLASSIFICATION_TYPE><NORAD_CAT_ID>50477</NORAD_CAT_ID><ELEMENT_SET_NO>999</ELEMENT_SET_NO><REV_AT_EPOCH>19991</REV_AT_EPOCH><BSTAR>.11279669E-3</BSTAR><MEAN_MOTION_DOT>.57E-6</MEAN_MOTION_DOT><MEAN_MOTION_DDOT>0</MEAN_MOTION_DDOT></tleParameters></data></segment></body></omm>
<omm id="CCSDS_OMM_VERS" version="2.0">
<header><CREATION_DATE/><ORIGINATOR/></header><body><segment><metadata><OBJECT_NAME>ONEWEB-0398</OBJECT_NAME><OBJECT_ID>2021-132K</OBJECT_ID><CENTER_NAME>EARTH</CENTER_NAME><REF_FRAME>TEME</REF_FRAME><TIME_SYSTEM>UTC</TIME_SYSTEM><MEAN_ELEMENT_THEORY>SGP4</MEAN_ELEMENT_THEORY></metadata><data><meanElements><EPOCH>2026-01-03T15:20:09.211200</EPOCH><MEAN_MOTION>13.11419283</MEAN_MOTION><ECCENTRICITY>.00014426</ECCENTRICITY><INCLINATION>87.8841</INCLINATION><RA_OF_ASC_NODE>53.8123</RA_OF_ASC_NODE><ARG_OF_PERICENTER>109.4294</ARG_OF_PERICENTER><MEAN_ANOMALY>250.6990</MEAN_ANOMALY></meanElements><tleParameters><EPHEMERIS_TYPE>0</EPHEMERIS_TYPE><CLASSIFICATION_TYPE>U</CLASSIFICATION_TYPE><NORAD_CAT_ID>50478</NORAD_CAT_ID><ELEMENT_SET_NO>999</ELEMENT_SET_NO><REV_AT_EPOCH>19404</REV_AT_EPOCH><BSTAR>.67917976E-4</BSTAR><MEAN_MOTION_DOT>.37E-6</MEAN_MOTION_DOT><MEAN_MOTION_DDOT>0</MEAN_MOTION_DDOT></tleParameters></data></segment></body></omm>
<omm id="CCSDS_OMM_VERS" version="2.0">
<header><CREATION_DATE/><ORIGINATOR/></header><body><segment><metadata><OBJECT_NAME>ONEWEB-0399</OBJECT_NAME><OBJECT_ID>2021-132L</OBJECT_ID><CENTER_NAME>EARTH</CENTER_NAME><REF_FRAME>TEME</REF_FRAME><TIME_SYSTEM>UTC</TIME_SYSTEM><MEAN_ELEMENT_THEORY>SGP4</MEAN_ELEMENT_THEORY></metadata><data><meanElements><EPOCH>2026-01-03T15:00:36.800352</EPOCH><MEAN_MOTION>13.11416732</MEAN_MOTION><ECCENTRICITY>.00022668</ECCENTRICITY><INCLINATION>87.8834</INCLINATION><RA_OF_ASC_NODE>53.8276</RA_OF_ASC_NODE><ARG_OF_PERICENTER>103.4204</ARG_OF_PERICENTER><MEAN_ANOMALY>256.7177</MEAN_ANOMALY></meanElements><tleParameters><EPHEMERIS_TYPE>0</EPHEMERIS_TYPE><CLASSIFICATION_TYPE>U</CLASSIFICATION_TYPE><NORAD_CAT_ID>50479</NORAD_CAT_ID><ELEMENT_SET_NO>999</ELEMENT_SET_NO><REV_AT_EPOCH>19403</REV_AT_EPOCH><BSTAR>-.13309102E-2</BSTAR><MEAN_MOTION_DOT>-.459E-5</MEAN_MOTION_DOT><MEAN_MOTION_DDOT>0</MEAN_MOTION_DDOT></tleParameters></data></segment></body></omm>
<omm id="CCSDS_OMM_VERS" version="2.0">
<header><CREATION_DATE/><ORIGINATOR/></header><body><segment><metadata><OBJECT_NAME>ONEWEB-0400</OBJECT_NAME><OBJECT_ID>2021-132M</OBJECT_ID><CENTER_NAME>EARTH</CENTER_NAME><REF_FRAME>TEME</REF_FRAME><TIME_SYSTEM>UTC</TIME_SYSTEM><MEAN_ELEMENT_THEORY>SGP4</MEAN_ELEMENT_THEORY></metadata><data><meanElements><EPOCH>2026-01-03T12:12:15.042816</EPOCH><MEAN_MOTION>13.18684790</MEAN_MOTION><ECCENTRICITY>.00015785</ECCENTRICITY><INCLINATION>87.9170</INCLINATION><RA_OF_ASC_NODE>8.1404</RA_OF_ASC_NODE><ARG_OF_PERICENTER>92.3146</ARG_OF_PERICENTER><MEAN_ANOMALY>267.8167</MEAN_ANOMALY></meanElements><tleParameters><EPHEMERIS_TYPE>0</EPHEMERIS_TYPE><CLASSIFICATION_TYPE>U</CLASSIFICATION_TYPE><NORAD_CAT_ID>50480</NORAD_CAT_ID><ELEMENT_SET_NO>999</ELEMENT_SET_NO><REV_AT_EPOCH>19990</REV_AT_EPOCH><BSTAR>.28424486E-3</BSTAR><MEAN_MOTION_DOT>.125E-5</MEAN_MOTION_DOT><MEAN_MOTION_DDOT>0</MEAN_MOTION_DDOT></tleParameters></data></segment></body></omm>
<omm id="CCSDS_OMM_VERS" version="2.0">
<header><CREATION_DATE/><ORIGINATOR/></header><body><segment><metadata><OBJECT_NAME>ONEWEB-0401</OBJECT_NAME><OBJECT_ID>2021-132N</OBJECT_ID><CENTER_NAME>EARTH</CENTER_NAME><REF_FRAME>TEME</REF_FRAME><TIME_SYSTEM>UTC</TIME_SYSTEM><MEAN_ELEMENT_THEORY>SGP4</MEAN_ELEMENT_THEORY></metadata><data><meanElements><EPOCH>2026-01-03T13:16:24.602592</EPOCH><MEAN_MOTION>13.18687676</MEAN_MOTION><ECCENTRICITY>.00018285</ECCENTRICITY><INCLINATION>87.9172</INCLINATION><RA_OF_ASC_NODE>8.1277</RA_OF_ASC_NODE><ARG_OF_PERICENTER>83.7751</ARG_OF_PERICENTER><MEAN_ANOMALY>276.3590</MEAN_ANOMALY></meanElements><tleParameters><EPHEMERIS_TYPE>0</EPHEMERIS_TYPE><CLASSIFICATION_TYPE>U</CLASSIFICATION_TYPE><NORAD_CAT_ID>50481</NORAD_CAT_ID><ELEMENT_SET_NO>999</ELEMENT_SET_NO><REV_AT_EPOCH>19991</REV_AT_EPOCH><BSTAR>.25845314E-3</BSTAR><MEAN_MOTION_DOT>.115E-5</MEAN_MOTION_DOT><MEAN_MOTION_DDOT>0</MEAN_MOTION_DDOT></tleParameters></data></segment></body></omm>
<omm id="CCSDS_OMM_VERS" version="2.0">
<header><CREATION_DATE/><ORIGINATOR/></header><body><segment><metadata><OBJECT_NAME>ONEWEB-0402</OBJECT_NAME><OBJECT_ID>2021-132P</OBJECT_ID><CENTER_NAME>EARTH</CENTER_NAME><REF_FRAME>TEME</REF_FRAME><TIME_SYSTEM>UTC</TIME_SYSTEM><MEAN_ELEMENT_THEORY>SGP4</MEAN_ELEMENT_THEORY></metadata><data><meanElements><EPOCH>2026-01-03T12:24:06.473376</EPOCH><MEAN_MOTION>13.18684378</MEAN_MOTION><ECCENTRICITY>.00020564</ECCENTRICITY><INCLINATION>87.9172</INCLINATION><RA_OF_ASC_NODE>8.1276</RA_OF_ASC_NODE><ARG_OF_PERICENTER>75.8575</ARG_OF_PERICENTER><MEAN_ANOMALY>284.2785</MEAN_ANOMALY></meanElements><tleParameters><EPHEMERIS_TYPE>0</EPHEMERIS_TYPE><CLASSIFICATION_TYPE>U</CLASSIFICATION_TYPE><NORAD_CAT_ID>50482</NORAD_CAT_ID><ELEMENT_SET_NO>999</ELEMENT_SET_NO><REV_AT_EPOCH>19993</REV_AT_EPOCH><BSTAR>.93769243E-4</BSTAR><MEAN_MOTION_DOT>.5E-6</MEAN_MOTION_DOT><MEAN_MOTION_DDOT>0</MEAN_MOTION_DDOT></tleParameters></data></segment></body></omm>

</ndm>
