ONEWEB-0395             
1 50475U 21132G   26003.59491384  .00000353  00000+0  96114-3 0  9998
2 50475  87.8828  53.8465 0001651 107.0853 253.0456 13.11415211194146
ONEWEB-0396             
1 50476U 21132H   26003.51511684 -.00000069  00000+0 -20854-3 0  9991
2 50476  87.9174   8.1492 0001824  91.0632 269.0709 13.18686260199935
ONEWEB-0397             
1 50477U 21132J   26003.52995357  .00000057  00000+0  11280-3 0  9994
2 50477  87.9174   8.1463 0001977  88.2736 271.8622 13.18684947199919
ONEWEB-0398             
1 50478U 21132K   26003.63899550  .00000037  00000+0  67918-4 0  9993
2 50478  87.8841  53.8123 0001442 109.4294 250.6990 13.11419283194046
ONEWEB-0399             
1 50479U 21132L   26003.62542593 -.00000459  00000+0 -13309-2 0  9998
2 50479  87.8834  53.8276 0002266 103.4204 256.7177 13.11416732194037
ONEWEB-0400             
1 50480U 21132M   26003.50850744  .00000125  00000+0  28424-3 0  9990
2 50480  87.9170   8.1404 0001578  92.3146 267.8167 13.18684790199906
ONEWEB-0401             
1 50481U 21132N   26003.55306253  .00000115  00000+0  25845-3 0  9990
2 50481  87.9172   8.1277 0001828  83.7751 276.3590 13.18687676199913
ONEWEB-0402             
1 50482U 21132P   26003.51674159  .00000050  00000+0  93769-4 0  9999
2 50482  87.9172   8.1276 0002056  75.8575 284.2785 13.18684378199935
